[{"OBJECT_NAME":"LEMUR-2-SONNENBLUME","OBJECT_ID":"2026-004E","EPOCH":"2026-03-09T22:21:50.544864","MEAN_MOTION":14.87695764,"ECCENTRICITY":0.00096588,"INCLINATION":97.7992,"RA_OF_ASC_NODE":69.0847,"ARG_OF_PERICENTER":106.8062,"MEAN_ANOMALY":253.4215,"EPHEMERIS_TYPE":0,"CLASSIFICATION_TYPE":"U","NORAD_CAT_ID":67367,"ELEMENT_SET_NO":999,"REV_AT_EPOCH":853,"BSTAR":0.00074909668,"MEAN_MOTION_DOT":6.779e-5,"MEAN_MOTION_DDOT":0},{"OBJECT_NAME":"UNKNOWN","OBJECT_ID":"","EPOCH":"2026-03-08T09:26:42.911808","MEAN_MOTION":14.89862793,"ECCENTRICITY":0.0006539,"INCLINATION":74.0048,"RA_OF_ASC_NODE":210.6958,"ARG_OF_PERICENTER":333.5088,"MEAN_ANOMALY":26.5758,"EPHEMERIS_TYPE":0,"CLASSIFICATION_TYPE":"U","NORAD_CAT_ID":82494,"ELEMENT_SET_NO":999,"REV_AT_EPOCH":9770,"BSTAR":0.0040962,"MEAN_MOTION_DOT":0.00039583,"MEAN_MOTION_DDOT":0}]
